STELLA                  
1 22824U 93061B   17345.90886257 -.00000030  00000-0  62227-5 0  9990
2 22824  98.8443 304.4824 0005394 246.7924 182.6971 14.27371181261363
